GLOBALSTAR M084 [+]     
1 38040U 11080A   24079.17815455 -.00000074  00000+0  16651-3 0  9996
2 38040  52.0038 353.6872 0000838  92.1350  55.3280 12.62272215565209
GLOBALSTAR M080 [+]     
1 38041U 11080B   24079.92857692 -.00000088  00000+0  87053-4 0  9999
2 38041  52.0091 352.8509 0000998  88.1610 350.1115 12.62269895565560
GLOBALSTAR M082 [+]     
1 38042U 11080C   24079.94723997 -.00000069  00000+0  19353-3 0  9998
2 38042  52.0082 308.1943 0000200  44.9014  58.3388 12.62267105566305
GLOBALSTAR M092 [+]     
1 38043U 11080D   24079.29728090 -.00000098  00000+0  34647-4 0  9992
2 38043  52.0100  40.5202 0000477 108.9179  39.1714 12.62276819564503
GLOBALSTAR M090 [+]     
1 38044U 11080E   24079.03294743 -.00000071  00000+0  18153-3 0  9992
2 38044  51.9889 305.3708 0000510  69.7701  77.8442 12.62267315566131
GLOBALSTAR M086 [+]     
1 38045U 11080F   24079.06307670 -.00000071  00000+0  18231-3 0  9997
2 38045  51.9901 305.7956 0001528  53.2511 110.7561 12.62268448566084
GLOBALSTAR M097 [+]     
1 39072U 13005A   24079.37020877 -.00000103  00000+0  32953-5 0  9997
2 39072  52.0031 218.9420 0000663  81.8210 278.2732 12.62261700513372
GLOBALSTAR M093 [+]     
1 39073U 13005B   24079.50200838 -.00000095  00000+0  50082-4 0  9992
2 39073  51.9795 212.5706 0000660  76.1249 283.9690 12.62262209513349
